INTELSAT 23 (IS-23)     
1 38867U 12057A   26193.33656072 -.00000283  00000+0  00000+0 0  9992
2 38867   0.0055 344.2744 0000320 207.9311 166.1782  1.00274321 50208
FM-6                    
1 39360U 13058A   26193.23378414 -.00000013  00000+0  00000+0 0  9994
2 39360   0.0179  52.4894 0001321 127.4680  77.9760  1.00271121 46323
INTELSAT 30 (IS-30)     
1 40271U 14062A   26193.18766508 -.00000148  00000+0  00000+0 0  9991
2 40271   0.0188  50.5240 0001386 331.3938 240.6798  1.00271415  7045
DIRECTV 14              
1 40333U 14078B   26193.11556865 -.00000122  00000+0  00000+0 0  9995
2 40333   0.0121  42.0289 0000269 266.6736 283.6692  1.00269944 42295
DIRECTV 15              
1 40663U 15026A   26193.23690569 -.00000100  00000+0  00000+0 0  9994
2 40663   0.0202  72.4846 0000197 202.5045 357.5578  1.00271579 40715
SKY MEXICO-1            
1 40664U 15026B   26193.19088875 -.00000232  00000+0  00000+0 0  9997
2 40664   0.0147  11.0838 0002312 124.1290 144.7955  1.00270818 40705
INTELSAT 34 (IS-34)     
1 40874U 15039A   26193.12428444 -.00000283  00000+0  00000+0 0  9993
2 40874   0.0109   7.8780 0000395 341.4074 289.9886  1.00271628 39880
INTELSAT 31 (IS-31)     
1 41581U 16035A   26193.18766508 -.00000148  00000+0  00000+0 0  9998
2 41581   0.0143 291.9047 0001125 348.2375 342.4522  1.00271481 36939
INTELSAT 36 (IS-36)     
1 41747U 16053A   26193.17872299 -.00000021  00000+0  00000+0 0  9996
2 41747   0.0100   6.3128 0002512 334.1019  82.4891  1.00269839 36208
INTELSAT 32E (IS-32E)   
1 41945U 17007B   26192.84151602  .00000000  00000+0  00000+0 0  9993
2 41945   0.0258  38.9305 0000463 266.3977 244.1878  1.00270600 34479
INTELSAT 35E (IS-35E)   
1 42818U 17041A   26193.33100285 -.00000236  00000+0  00000+0 0  9999
2 42818   0.0172  40.7551 0001580  69.3941 264.7396  1.00269933 33065
INTELSAT 37E (IS-37E)   
1 42950U 17059A   26193.31989030 -.00000139  00000+0  00000+0 0  9998
2 42950   0.0132  68.1637 0002479  50.4138 268.7942  1.00270508 32312
AZERSPACE 2 (IS-38)     
1 43632U 18074A   26193.21547547  .00000000  00000+0  00000+0 0  9992
2 43632   0.0241  33.3058 0001312  93.3997 286.1020  1.00271379 28690
HORIZONS-3E             
1 43633U 18074B   26193.09732266 -.00000028  00000+0  00000+0 0  9994
2 43633   0.0365 227.6158 0000928  52.1658 214.2501  1.00270909 28599
AT&T T-16               
1 44333U 19034A   26193.18653841 -.00000112  00000+0  00000+0 0  9994
2 44333   0.0149  55.4299 0000569 248.4909 312.4572  1.00267155 25887
INTELSAT 39 (IS-39)     
1 44476U 19049B   26193.21876882  .00000000  00000+0  00000+0 0  9999
2 44476   0.0250  37.8128 0001063 294.9550  98.0579  1.00266931 25370
GALAXY 30 (G-30)        
1 46114U 20056C   26193.28226571  .00000039  00000+0  00000+0 0  9993
2 46114   0.0034 103.9227 0001947  10.6096 152.2522  1.00270910 21543
GALAXY 33 (G-33)        
1 54026U 22128A   26193.35052453  .00000081  00000+0  00000+0 0  9997
2 54026   0.0100   8.6415 0001752 111.2217 163.5667  1.00271140 13996
GALAXY 34 (G-34)        
1 54027U 22128B   26193.34982693  .00000000  00000+0  00000+0 0  9996
2 54027   0.0229  13.4410 0001339 110.3523 163.3846  1.00271629 14168
GALAXY 31 (G-31)        
1 54243U 22153A   26193.18255174  .00000000  00000+0  00000+0 0  9993
2 54243   0.0257  60.8113 0000939  59.2464 114.7341  1.00270088  7389
GALAXY 32 (G-32)        
1 54244U 22153B   26193.11721532 -.00000171  00000+0  00000+0 0  9993
2 54244   0.0122  10.1560 0001408  44.3435 186.7093  1.00266947 13390
GALAXY 35 (G-35)        
1 54741U 22170A   26193.23557810  .00000000  00000+0  00000+0 0  9993
2 54741   0.0213  53.9436 0001879  62.9809 164.9128  1.00269145 13146
GALAXY 36 (G-36)        
1 54742U 22170B   26193.11764866 -.00000182  00000+0  00000+0 0  9994
2 54742   0.0287 111.1132 0002361 348.7092 143.5481  1.00271080 13027
GALAXY 37 (G-37)        
1 57493U 23112A   26193.23933588  .00000050  00000+0  00000+0 0  9992
2 57493   0.0169  68.5646 0001745  47.7476 132.9773  1.00270820 10792
