OBJECT_NAME,OBJECT_ID,EPOCH,MEAN_MOTION,ECCENTRICITY,INCLINATION,RA_OF_ASC_NODE,ARG_OF_PERICENTER,MEAN_ANOMALY,EPHEMERIS_TYPE,CLASSIFICATION_TYPE,NORAD_CAT_ID,ELEMENT_SET_NO,REV_AT_EPOCH,BSTAR,MEAN_MOTION_DOT,MEAN_MOTION_DDOT
INTELSAT 23 (IS-23),2012-057A,2026-07-12T08:04:38.846208,1.00274321,.00003207,0.0055,344.2744,207.9311,166.1782,0,U,38867,999,5020,0,-.283E-5,0
FM-6,2013-058A,2026-07-12T05:36:38.949696,1.00271121,.00013218,0.0179,52.4894,127.4680,77.9760,0,U,39360,999,4632,0,-.13E-6,0
INTELSAT 30 (IS-30),2014-062A,2026-07-12T04:30:14.262912,1.00271415,.00013868,0.0188,50.5240,331.3938,240.6798,0,U,40271,999,704,0,-.148E-5,0
DIRECTV 14,2014-078B,2026-07-12T02:46:25.131360,1.00269944,.00002698,0.0121,42.0289,266.6736,283.6692,0,U,40333,999,4229,0,-.122E-5,0
DIRECTV 15,2015-026A,2026-07-12T05:41:08.651616,1.00271579,.00001973,0.0202,72.4846,202.5045,357.5578,0,U,40663,999,4071,0,-.1E-5,0
SKY MEXICO-1,2015-026B,2026-07-12T04:34:52.788000,1.00270818,.00023126,0.0147,11.0838,124.1290,144.7955,0,U,40664,999,4070,0,-.232E-5,0
INTELSAT 34 (IS-34),2015-039A,2026-07-12T02:58:58.175616,1.00271628,.00003951,0.0109,7.8780,341.4074,289.9886,0,U,40874,999,3988,0,-.283E-5,0
INTELSAT 31 (IS-31),2016-035A,2026-07-12T04:30:14.262912,1.00271481,.00011259,0.0143,291.9047,348.2375,342.4522,0,U,41581,999,3693,0,-.148E-5,0
INTELSAT 36 (IS-36),2016-053A,2026-07-12T04:17:21.666336,1.00269839,.00025127,0.0100,6.3128,334.1019,82.4891,0,U,41747,999,3620,0,-.21E-6,0
INTELSAT 32E (IS-32E),2017-007B,2026-07-11T20:11:46.984128,1.00270600,.0000463,0.0258,38.9305,266.3977,244.1878,0,U,41945,999,3447,0,0,0
INTELSAT 35E (IS-35E),2017-041A,2026-07-12T07:56:38.646240,1.00269933,.00015807,0.0172,40.7551,69.3941,264.7396,0,U,42818,999,3306,0,-.236E-5,0
INTELSAT 37E (IS-37E),2017-059A,2026-07-12T07:40:38.521920,1.00270508,.00024793,0.0132,68.1637,50.4138,268.7942,0,U,42950,999,3231,0,-.139E-5,0
AZERSPACE 2 (IS-38),2018-074A,2026-07-12T05:10:17.080608,1.00271379,.00013123,0.0241,33.3058,93.3997,286.1020,0,U,43632,999,2869,0,0,0
HORIZONS-3E,2018-074B,2026-07-12T02:20:08.677824,1.00270909,.00009283,0.0365,227.6158,52.1658,214.2501,0,U,43633,999,2859,0,-.28E-6,0
AT&T T-16,2019-034A,2026-07-12T04:28:36.918624,1.00267155,.00005694,0.0149,55.4299,248.4909,312.4572,0,U,44333,999,2588,0,-.112E-5,0
INTELSAT 39 (IS-39),2019-049B,2026-07-12T05:15:01.626048,1.00266931,.00010633,0.0250,37.8128,294.9550,98.0579,0,U,44476,999,2537,0,0,0
GALAXY 30 (G-30),2020-056C,2026-07-12T06:46:27.757344,1.00270910,.00019471,0.0034,103.9227,10.6096,152.2522,0,U,46114,999,2154,0,.39E-6,0
GALAXY 33 (G-33),2022-128A,2026-07-12T08:24:45.319392,1.00271140,.00017526,0.0100,8.6415,111.2217,163.5667,0,U,54026,999,1399,0,.81E-6,0
GALAXY 34 (G-34),2022-128B,2026-07-12T08:23:45.046752,1.00271629,.00013399,0.0229,13.4410,110.3523,163.3846,0,U,54027,999,1416,0,0,0
GALAXY 31 (G-31),2022-153A,2026-07-12T04:22:52.470336,1.00270088,.00009394,0.0257,60.8113,59.2464,114.7341,0,U,54243,999,738,0,0,0
GALAXY 32 (G-32),2022-153B,2026-07-12T02:48:47.403648,1.00266947,.00014086,0.0122,10.1560,44.3435,186.7093,0,U,54244,999,1339,0,-.171E-5,0
GALAXY 35 (G-35),2022-170A,2026-07-12T05:39:13.947840,1.00269145,.00018797,0.0213,53.9436,62.9809,164.9128,0,U,54741,999,1314,0,0,0
GALAXY 36 (G-36),2022-170B,2026-07-12T02:49:24.844224,1.00271080,.00023614,0.0287,111.1132,348.7092,143.5481,0,U,54742,999,1302,0,-.182E-5,0
GALAXY 37 (G-37),2023-112A,2026-07-12T05:44:38.620032,1.00270820,.00017454,0.0169,68.5646,47.7476,132.9773,0,U,57493,999,1079,0,.5E-6,0
